#dP2023  6  1 18  0  0.00000000      96 __u+U ITR00 EXT  IAC
## 2264 410400.00000000   900.00000000 60096 0.7500000000000
+  119   C06C07C08C09C10C11C12C13C14C16C19C20C21C22C23C24C25
+        C26C27C28C29C30C32C33C34C35C36C37C38C39C40C41C42C43
+        C44C45C46E02E03E04E05E07E08E09E10E11E12E13E14E15E18
+        E19E21E24E25E26E27E30E31E33E34E36G01G02G03G04G05G06
+        G07G08G09G10G11G12G13G14G15G16G17G18G19G20G21G22G23
+        G24G25G26G27G28G29G30G31G32J02J03J04R01R02R03R04R05
+        R07R08R09R11R12R13R14R15R16R17R18R19R20R21R22R24R25
++        10 10 16 10 10  8  9 13  9  9  8  8  9  7  7  7  8
++         8  9  8  8  7  9  9  7  9  8  7 11  9  8  8  7  7
++         7  8  8  7  8  6  6  8  8  6  7  8  6  8  7  7  7
++         7  7  6  6  8  7  8  7  7  7  8  6  6  6  7  7  6
++         7  7  7  9  7  7  7  7  7  7  7  7  7  6  7  6  7
++         8  7  7  8  7  7  8  6  7  8 10  9  8  6  8  8  8
++         9  9  7  6  8  9  7  7  7  6  7  9  8  7  5 10  7
%c M  cc GPS ccc cccc cccc cccc cccc ccccc ccccc ccccc ccccc
%c cc cc ccc ccc cccc cccc cccc cccc ccccc ccccc ccccc ccccc
%f  0.0000000  0.000000000  0.00000000000  0.000000000000000
%f  0.0000000  0.000000000  0.00000000000  0.000000000000000
%i    0    0    0    0      0      0      0      0         0
%i    0    0    0    0      0      0      0      0         0
/* IAC                                ULTRA-RAPID PREDICTION
/* S/V CLOCKS ARE ALIGNED TO GNSS TIME                      
/* G:C1WC2W R:C1PC2P E:C1XC5X C:C2IC6I J:C1CC2S             
/* PCV:IGS20_2247 OL/AL:FES2004  NONE     YN ORB:CoN CLK:CoN
*  2023 06 02  5 45  0.00000000
PC06  -7503.357788  23493.163552 -34158.716290   -184.368511
PC07 -16460.338133  36819.981631  12019.557495   -109.969894
PC08   -646.623283  37519.212859  19404.391796    470.635970
PC09   3494.659399  25826.776711 -32601.496637    583.187666
PC10  -8423.769817  36555.421134  19034.373513    -74.576971
PC11  27527.064600   4095.551712   2270.189241    651.941727
PC12  16528.899814  13390.037674  18095.927959    682.524536
PC13   4365.740654  40120.395512  12816.900452    287.690336
PC14  18339.678608  -1818.124305 -20955.574245    347.860402
PC16 -10693.104579  21824.694595 -34238.258875     57.833957
PC19 -20168.842740  11448.291845  15526.803988   -917.512284
PC20 -14430.395465  -6516.953325  22991.003048    529.987368
PC21   -534.963683  21990.274781 -17136.048159   -919.584191
PC22 -14581.241946  23734.671876  -1336.407331   -460.038682
PC23   6737.480845 -18486.908653  19797.413141   -945.352676
PC24  17889.598042  18550.830104  10723.864942     15.248052
PC25  17139.523046  -1387.814763  21975.135134    138.860024
PC26   9239.266240  25794.110857  -5400.155013   -128.881960
PC27  -7744.668006 -15728.260735 -21738.503140    149.099174
PC28  12128.426264 -13802.848032 -21005.216518    110.572083
PC29 -26721.989943   4015.871119   6961.507566    128.500996
PC30 -24139.232355  -8558.523701 -11119.250448     -0.788383
PC32    420.211578 -22070.496407  17101.244318   -553.984407
PC33  20113.567635 -11538.147420 -15537.425404   -889.234387
PC34  24862.784678   7820.895220   9925.829199    184.025483
PC35 -12352.087460  14092.169755  20674.084158    615.859566
PC36 -17414.176558    184.350783 -21777.883580   -406.703520
PC37  -7813.435170 -25991.776846   6462.068968   -784.367129
PC38  -6492.681468  33415.677022  25004.805917     82.378032
PC39 -15338.402371  20595.184131 -33433.958415     -3.150945
PC40 -23505.231500  32964.829729  11320.891477    -24.989539
PC41  14844.030177 -23630.102730    737.792838   -930.326562
PC42  13662.838198   7826.245468 -22994.600872   -666.317354
PC43  26981.013462  -3470.103907  -6190.154325     24.260824
PC44   8071.500415  15576.331889  21676.691265    125.352850
PC45  -6275.493969  18825.752562 -19624.186255   -105.181764
PC46 -18194.468386 -17367.181912 -12046.862558    -58.471959
PE02 -16771.950182   -180.143225 -24392.818961     41.651631
PE03 -27369.519497   4713.235686  10221.796531    -22.344531
PE04  23010.354777 -16815.640750   8018.083074   -135.662717
PE05 -15726.466149 -10408.686660  22822.002119    -61.832386
PE07  -5273.740039  19300.885992 -21798.035906    -49.595398
PE08 -23198.022785  16662.674454  -7735.408235    -92.526693
PE09   5500.730651 -19239.537027  21825.159495    -35.736509
PE10   4550.521026 -16032.248481 -24476.388886   -538.169206
PE11  -6326.196235 -20584.978673 -20332.524216   2102.284230
PE12  13838.068418  -9539.198786 -24373.381020   -563.362946
PE13   5616.728654  20297.574629  20791.014267    -19.222071
PE14  26003.421100 -16642.654527  -8523.354226    242.349644
PE15 -14108.997314   9204.872769  24337.683278    -26.336474
PE18 -21726.297424   9831.762756   2990.407305    134.134360
PE19  26697.520900  -2662.555636 -12492.522764  -2394.160397
PE21  10985.258165  20106.450650  18739.836826   -532.605010
PE24   2045.731398 -29492.844216  -1271.127269   -132.180387
PE25 -10805.579237 -20400.854993 -18519.942633   -606.072766
PE26  22166.967783  19126.393493   4346.970897    121.983761
PE27  -1477.415515  29502.836077   1947.158459    -64.453278
PE30 -13281.186342  20933.135148 -16190.972804   -221.980305
PE31  12942.100567 -21414.217579  15821.833146   -525.029964
PE33  25332.249296   7216.176259 -13498.236890   -443.676187
PE34 -25314.710169  -7067.064489  13600.036847    -48.623552
PE36 -21796.044116 -19370.767207  -5127.363040    -65.118190
PG01 -22086.705987 -14575.230513   3576.975234    181.066113
PG02 -18018.601249 -17957.268325  -7706.336981   -589.933051
PG03 -12980.257697  -9514.915839  21019.488605   -284.465735
PG04 -22064.517135  -2622.763080  14647.607541     57.252790
PG05   5983.432064  23213.942777 -11482.362270   -129.515496
PG06  -6010.712452  13673.411438  22012.056096    586.776383
PG07 -21258.588173  -2311.835960 -15595.438823    163.067689
PG08 -12714.145572 -10463.097790 -20987.725719   -125.399345
PG09 -25069.661396   6443.965614   5977.545066   -145.291805
PG10  11040.666402 -20451.539292 -12385.482878    -39.439617
PG11   8268.887023  20478.301530  14792.569405   -219.477076
PG12  11253.615065  13317.295106  19781.576376   -383.476871
PG13   4070.018405  14554.758968 -22019.642625    528.365491
PG14 -13369.501669  17736.300879 -14437.704256     77.056475
PG15  14450.339515   9348.154156 -20746.319673     45.065118
PG16   -858.883726 -24840.133783  -8994.688427   -495.520865
PG17 -20694.499859  14006.260962   9586.237567    716.992198
PG18  19220.109771   -662.186824 -18389.998371   -291.069026
PG19 -14458.854294  15397.461015  15685.304439    325.025261
PG20   2202.442699  26516.646810  -1679.296141    430.271904
PG21 -20507.978880 -16846.463057  -4530.080857    153.432090
PG22  10684.612249 -16659.393361  18088.449088    491.286539
PG23  14675.624068  -9061.786063 -20148.352283     29.379870
PG24  21977.838161  15277.518463  -1500.528352   -210.416337
PG25  15292.050709    -21.573525  21391.396781    447.020796
PG26   4563.964500 -25649.207535   4006.038966    239.875003
PG27   -457.873330 -15864.652546 -21484.553446     24.895226
PG28   7691.152473 -13152.223136  21734.114634     81.731963
PG29  25168.777901  -2400.487502   8236.704035   -601.483664
PG30 -14520.854373   8010.005312 -20675.464106   -513.624224
PG31  -3724.433639 -19094.223556  17714.576266   -217.305444
PG32  17991.810143 -16078.640063  11056.445405   -490.827926
PJ02 -22445.441721  30762.216114 -13337.404483     -0.269467
PJ03 -27912.877207  22889.503891  26947.815682      5.497048
PJ04 -32055.341220  27101.586560  10165.020549     94.984908
PR01  -6124.284529  -9503.374250  22871.978689     58.621525
PR02 -17527.902917   6135.996874  17565.718496    -22.762614
PR03 -18346.195093  17647.435770   2083.509899     78.912652
PR04  -9260.440950  18987.726681 -14270.217272    189.556152
PR05   4900.946470  10179.924350 -22855.584774    113.492459
PR07  18043.698702 -17959.794262  -1098.477562     57.148424
PR08   8850.423051 -19039.140874  14528.513021    -71.091513
PR09  12824.909538   5377.666709  21385.212796    123.520191
PR11  -2266.578066 -23437.613043   9843.899866    -69.617313
PR12 -10844.888930 -21167.005160  -9177.055343     27.769687
PR13 -12768.876645  -7681.658554 -20714.590983    -35.683686
PR14  -6847.011033  12642.320158 -21050.695094     24.707847
PR15   2707.128837  23847.292477  -8608.451484     88.915384
PR16  10873.959535  21246.861569   8961.906080     15.191686
PR17 -16503.956654   4674.766398  18863.897872    635.318841
PR18     57.081326  10777.822116  23122.792207     84.534727
PR19  15230.798334  12133.524228  16469.776647   -234.811041
PR20  24604.894067   5873.423750  -3106.847359    -93.902179
PR21  15355.811769  -5182.632532 -19713.796043    -12.085078
PR22   -676.464502 -11416.575640 -22780.685694     79.556318
PR24 -24799.210769  -4643.110539   3717.447392     -9.696582
PR25  16926.744556  -4065.758286 -18652.991480     60.907408
EOF
